OBJECT_NAME,OBJECT_ID,EPOCH,MEAN_MOTION,ECCENTRICITY,INCLINATION,RA_OF_ASC_NODE,ARG_OF_PERICENTER,MEAN_ANOMALY,EPHEMERIS_TYPE,CLASSIFICATION_TYPE,NORAD_CAT_ID,ELEMENT_SET_NO,REV_AT_EPOCH,BSTAR,MEAN_MOTION_DOT,MEAN_MOTION_DDOT
STARLINK-38078,2026-150F,2026-07-11T12:00:02.000160,15.80830521,.000118,97.2845,30.6620,75.5021,86.5421,0,U,69744,999,270,.46181E-4,.8718E-4,0
STARLINK-38047,2026-150G,2026-07-11T12:00:02.000160,15.80862923,.0001273,97.2846,30.6631,68.5575,97.9516,0,U,69745,999,270,.24456E-3,.47057E-3,0
STARLINK-38046,2026-150H,2026-07-11T12:00:02.000160,15.80837271,.0001174,97.2848,30.6684,93.3542,84.1624,0,U,69746,999,270,.18193E-4,.3348E-4,0
STARLINK-38067,2026-150J,2026-07-11T12:00:02.000160,15.75156357,.0001006,97.2846,30.6656,84.9854,84.5971,0,U,69747,999,270,.96799E-4,.14311E-3,0
STARLINK-37988,2026-150K,2026-07-11T12:00:02.000160,15.76630728,.0001962,97.2844,30.6697,61.4198,117.2763,0,U,69748,999,270,-.13174E-1,-.1834412E-1,0
STARLINK-37987,2026-150L,2026-07-11T12:00:02.000160,15.80577852,.0001695,97.2842,30.6742,79.1136,112.0627,0,U,69749,999,270,-.11465E-1,-.1899E-1,0
STARLINK-38037,2026-150M,2026-07-11T12:00:02.000160,15.80822811,.0001017,97.2840,30.6798,94.0088,109.5121,0,U,69750,999,270,.11627E-3,.22193E-3,0
STARLINK-38049,2026-150N,2026-07-11T12:00:02.000160,15.80812740,.0001074,97.2844,30.6825,82.2754,127.0374,0,U,69751,999,270,.24997E-3,.47995E-3,0
STARLINK-38029,2026-150P,2026-07-11T12:00:02.000160,15.80818349,.0001068,97.2841,30.6971,81.0022,161.0131,0,U,69752,999,270,.13411E-3,.25625E-3,0
STARLINK-37965,2026-150Q,2026-07-11T12:00:02.000160,15.81201882,.0001522,97.2836,30.6960,98.2234,144.6809,0,U,69753,999,270,-.88857E-2,-.1526729E-1,0
STARLINK-38048,2026-150R,2026-07-11T12:00:02.000160,15.80814202,.0000999,97.2837,30.6979,71.4504,172.6725,0,U,69754,999,270,.22861E-3,.43864E-3,0
STARLINK-38006,2026-150S,2026-07-11T12:00:02.000160,15.80771593,.0000831,97.2839,30.7047,63.0273,196.7260,0,U,69755,999,270,.5087E-3,.98201E-3,0
STARLINK-38036,2026-150T,2026-07-11T12:00:02.000160,15.80819580,.0001076,97.2839,30.7093,88.6832,178.7253,0,U,69756,999,270,.19333E-3,.37053E-3,0
STARLINK-38058,2026-150U,2026-07-11T12:00:02.000160,15.80819098,.0000973,97.2841,30.7089,75.9292,192.9181,0,U,69757,999,270,.17371E-3,.33263E-3,0
STARLINK-38066,2026-150V,2026-07-11T12:00:02.000160,15.80805446,.0001453,97.2841,30.7088,78.8121,190.8921,0,U,69758,999,270,.27232E-3,.52308E-3,0
STARLINK-38035,2026-150W,2026-07-11T12:00:02.000160,15.80780859,.0000946,97.2841,30.7092,72.1923,198.1308,0,U,69759,999,270,.44976E-3,.86728E-3,0
STARLINK-38056,2026-150X,2026-07-11T12:00:02.000160,15.80831727,.0001261,97.2840,30.7184,86.5835,203.4876,0,U,69760,999,270,.21389E-4,.396E-4,0
STARLINK-38069,2026-150Y,2026-07-11T12:00:02.000160,15.80810813,.000141,97.2842,30.7273,75.0889,234.6536,0,U,69761,999,270,.23816E-3,.45707E-3,0
STARLINK-38019,2026-150Z,2026-07-11T12:00:02.000160,15.78896158,.0001326,97.2840,30.7254,83.1916,226.4865,0,U,69762,999,270,-.12471E-1,-.1910341E-1,0
KUIPER-00258,2026-151A,2026-07-11T12:00:02.000160,15.35379483,.0011573,51.8671,198.3752,156.7895,248.1930,0,U,69763,999,181,.15412E-2,.53886E-3,0
KUIPER-00526,2026-151B,2026-07-11T12:00:02.000160,15.37250140,.0006013,51.8762,198.2583,126.8198,335.3442,0,U,69764,999,157,.13198E-2,.48856E-3,0
KUIPER-00558,2026-151C,2026-07-11T12:00:02.000160,15.36742916,.0007571,51.8754,198.2907,138.4019,308.1668,0,U,69765,999,205,.13565E-2,.49426E-3,0
KUIPER-00569,2026-151D,2026-07-11T12:00:02.000160,15.37403216,.0005067,51.8786,198.2433,124.5403,343.9034,0,U,69766,999,130,.13262E-2,.49339E-3,0
KUIPER-00589,2026-151E,2026-07-11T12:00:02.000160,15.37345967,.0005332,51.8753,198.2526,130.1174,335.2148,0,U,69767,999,208,.13242E-2,.4917E-3,0
KUIPER-00598,2026-151F,2026-07-11T12:00:02.000160,15.35421359,.0009746,51.8634,198.3634,155.7132,254.1382,0,U,69768,999,199,.1279E-2,.44629E-3,0
KUIPER-00604,2026-151G,2026-07-11T12:00:02.000160,15.38167351,.0002727,51.8797,198.1908,91.9455,40.7647,0,U,69769,999,240,.12845E-2,.48965E-3,0
KUIPER-00609,2026-151H,2026-07-11T12:00:02.000160,15.38565186,.0001195,51.8800,198.1613,35.3299,111.4657,0,U,69770,999,130,.12516E-2,.48319E-3,0
KUIPER-00611,2026-151J,2026-07-11T12:00:02.000160,15.38377949,.0001641,51.8802,198.1718,86.2360,53.5349,0,U,69771,999,130,.1257E-2,.48233E-3,0
KUIPER-00612,2026-151K,2026-07-11T12:00:02.000160,15.37868957,.0003699,51.8790,198.2130,101.5261,21.3647,0,U,69772,999,130,.13012E-2,.49133E-3,0
KUIPER-00614,2026-151L,2026-07-11T12:00:02.000160,15.38081303,.0002687,51.8801,198.1950,107.6817,22.1825,0,U,69773,999,198,.12862E-2,.48891E-3,0
