STARLINK-38078          
1 69744U 26150F   26192.50002315  .00008718  00000+0  46181-4 0  9997
2 69744  97.2845  30.6620 0001180  75.5021  86.5421 15.80830521  2702
STARLINK-38047          
1 69745U 26150G   26192.50002315  .00047057  00000+0  24456-3 0  9997
2 69745  97.2846  30.6631 0001273  68.5575  97.9516 15.80862923  2707
STARLINK-38046          
1 69746U 26150H   26192.50002315  .00003348  00000+0  18193-4 0  9995
2 69746  97.2848  30.6684 0001174  93.3542  84.1624 15.80837271  2704
STARLINK-38067          
1 69747U 26150J   26192.50002315  .00014311  00000+0  96799-4 0  9996
2 69747  97.2846  30.6656 0001006  84.9854  84.5971 15.75156357  2700
STARLINK-37988          
1 69748U 26150K   26192.50002315 -.01834412  00000+0 -13174-1 0  9995
2 69748  97.2844  30.6697 0001962  61.4198 117.2763 15.76630728  2709
STARLINK-37987          
1 69749U 26150L   26192.50002315 -.01899000  00000+0 -11465-1 0  9991
2 69749  97.2842  30.6742 0001695  79.1136 112.0627 15.80577852  2705
STARLINK-38037          
1 69750U 26150M   26192.50002315  .00022193  00000+0  11627-3 0  9993
2 69750  97.2840  30.6798 0001017  94.0088 109.5121 15.80822811  2704
STARLINK-38049          
1 69751U 26150N   26192.50002315  .00047995  00000+0  24997-3 0  9995
2 69751  97.2844  30.6825 0001074  82.2754 127.0374 15.80812740  2707
STARLINK-38029          
1 69752U 26150P   26192.50002315  .00025625  00000+0  13411-3 0  9991
2 69752  97.2841  30.6971 0001068  81.0022 161.0131 15.80818349  2705
STARLINK-37965          
1 69753U 26150Q   26192.50002315 -.01526729  00000+0 -88857-2 0  9991
2 69753  97.2836  30.6960 0001522  98.2234 144.6809 15.81201882  2706
STARLINK-38048          
1 69754U 26150R   26192.50002315  .00043864  00000+0  22861-3 0  9997
2 69754  97.2837  30.6979 0000999  71.4504 172.6725 15.80814202  2701
STARLINK-38006          
1 69755U 26150S   26192.50002315  .00098201  00000+0  50870-3 0  9994
2 69755  97.2839  30.7047 0000831  63.0273 196.7260 15.80771593  2702
STARLINK-38036          
1 69756U 26150T   26192.50002315  .00037053  00000+0  19333-3 0  9992
2 69756  97.2839  30.7093 0001076  88.6832 178.7253 15.80819580  2701
STARLINK-38058          
1 69757U 26150U   26192.50002315  .00033263  00000+0  17371-3 0  9992
2 69757  97.2841  30.7089 0000973  75.9292 192.9181 15.80819098  2706
STARLINK-38066          
1 69758U 26150V   26192.50002315  .00052308  00000+0  27232-3 0  9991
2 69758  97.2841  30.7088 0001453  78.8121 190.8921 15.80805446  2704
STARLINK-38035          
1 69759U 26150W   26192.50002315  .00086728  00000+0  44976-3 0  9999
2 69759  97.2841  30.7092 0000946  72.1923 198.1308 15.80780859  2703
STARLINK-38056          
1 69760U 26150X   26192.50002315  .00003960  00000+0  21389-4 0  9992
2 69760  97.2840  30.7184 0001261  86.5835 203.4876 15.80831727  2709
STARLINK-38069          
1 69761U 26150Y   26192.50002315  .00045707  00000+0  23816-3 0  9994
2 69761  97.2842  30.7273 0001410  75.0889 234.6536 15.80810813  2701
STARLINK-38019          
1 69762U 26150Z   26192.50002315 -.01910341  00000+0 -12471-1 0  9996
2 69762  97.2840  30.7254 0001326  83.1916 226.4865 15.78896158  2703
KUIPER-00258            
1 69763U 26151A   26192.50002315  .00053886  00000+0  15412-2 0  9996
2 69763  51.8671 198.3752 0011573 156.7895 248.1930 15.35379483  1819
KUIPER-00526            
1 69764U 26151B   26192.50002315  .00048856  00000+0  13198-2 0  9997
2 69764  51.8762 198.2583 0006013 126.8198 335.3442 15.37250140  1579
KUIPER-00558            
1 69765U 26151C   26192.50002315  .00049426  00000+0  13565-2 0  9990
2 69765  51.8754 198.2907 0007571 138.4019 308.1668 15.36742916  2050
KUIPER-00569            
1 69766U 26151D   26192.50002315  .00049339  00000+0  13262-2 0  9998
2 69766  51.8786 198.2433 0005067 124.5403 343.9034 15.37403216  1300
KUIPER-00589            
1 69767U 26151E   26192.50002315  .00049170  00000+0  13242-2 0  9990
2 69767  51.8753 198.2526 0005332 130.1174 335.2148 15.37345967  2085
KUIPER-00598            
1 69768U 26151F   26192.50002315  .00044629  00000+0  12790-2 0  9992
2 69768  51.8634 198.3634 0009746 155.7132 254.1382 15.35421359  1991
KUIPER-00604            
1 69769U 26151G   26192.50002315  .00048965  00000+0  12845-2 0  9991
2 69769  51.8797 198.1908 0002727  91.9455  40.7647 15.38167351  2407
KUIPER-00609            
1 69770U 26151H   26192.50002315  .00048319  00000+0  12516-2 0  9991
2 69770  51.8800 198.1613 0001195  35.3299 111.4657 15.38565186  1306
KUIPER-00611            
1 69771U 26151J   26192.50002315  .00048233  00000+0  12570-2 0  9997
2 69771  51.8802 198.1718 0001641  86.2360  53.5349 15.38377949  1307
KUIPER-00612            
1 69772U 26151K   26192.50002315  .00049133  00000+0  13012-2 0  9990
2 69772  51.8790 198.2130 0003699 101.5261  21.3647 15.37868957  1306
KUIPER-00614            
1 69773U 26151L   26192.50002315  .00048891  00000+0  12862-2 0  9993
2 69773  51.8801 198.1950 0002687 107.6817  22.1825 15.38081303  1983
